H1 CPF  1  DLR 2021 04 20 10  6102 technosat            
H2  1704205 6203    42829 2021 04 20 00 00 00 2021 04 27 00 00 00    60 1 1  0 0 0
H9
10 0 59330  50400.000000  0       1896073.324      -6234426.557      -2469434.398
10 0 59330  50460.000000  0       1849984.167      -6399885.727      -2043978.619
10 0 59330  50520.000000  0       1794754.395      -6537871.930      -1609827.554
10 0 59330  50580.000000  0       1730858.307      -6647716.188      -1168826.175
10 0 59330  50640.000000  0       1658812.652      -6728874.102       -722849.996
10 0 59330  50700.000000  0       1579173.347      -6780928.608       -273796.666
10 0 59330  50760.000000  0       1492531.982      -6803592.092        176422.316
10 0 59330  50820.000000  0       1399512.168      -6796708.114        625889.924
10 0 59330  50880.000000  0       1300765.666      -6760252.539       1072692.163
10 0 59330  50940.000000  0       1196968.384      -6694333.844       1514926.644
10 0 59330  51000.000000  0       1088816.331      -6599192.683       1950711.073
10 0 59330  51060.000000  0        977021.466      -6475200.829       2378191.508
10 0 59330  51120.000000  0        862307.424      -6322859.546       2795550.542
10 0 59330  51180.000000  0        745405.199      -6142797.231       3201015.232
10 0 59330  51240.000000  0        627048.858      -5935766.523       3592864.767
10 0 59330  51300.000000  0        507971.292      -5702640.817       3969437.864
10 0 59330  51360.000000  0        388900.014      -5444410.241       4329139.863
10 0 59330  51420.000000  0        270553.016      -5162177.076       4670449.527
10 0 59330  51480.000000  0        153634.711      -4857150.620       4991925.428
10 0 59330  51540.000000  0         38832.015      -4530641.622       5292211.903
10 0 59330  51600.000000  0        -73189.390      -4184056.314       5570044.654
10 0 59330  51660.000000  0       -181788.658      -3818889.966       5824255.934
10 0 59330  51720.000000  0       -286353.210      -3436720.063       6053779.206
10 0 59330  51780.000000  0       -386301.973      -3039199.187       6257653.286
10 0 59330  51840.000000  0       -481088.404      -2628047.692       6435026.022
10 0 59330  51900.000000  0       -570203.299      -2205046.162       6585157.568
10 0 59330  51960.000000  0       -653177.352      -1772027.622       6707423.215
10 0 59330  52020.000000  0       -729583.484      -1330869.554       6801315.783
10 0 59330  52080.000000  0       -799038.931       -883485.703       6866447.537
10 0 59330  52140.000000  0       -861207.080       -431817.749       6902551.605
10 0 59330  52200.000000  0       -915799.050         22173.081       6909482.880
10 0 59330  52260.000000  0       -962574.963        476514.479       6887218.486
10 0 59330  52320.000000  0      -1001344.957        929231.567       6835857.755
10 0 59330  52380.000000  0      -1031969.898       1378355.387       6755621.718
10 0 59330  52440.000000  0      -1054361.845       1821931.367       6646852.169
10 0 59330  52500.000000  0      -1068484.224       2258027.758       6510010.242
10 0 59330  52560.000000  0      -1074351.734       2684743.946       6345674.532
10 0 59330  52620.000000  0      -1072029.997       3100218.700       6154538.803
10 0 59330  52680.000000  0      -1061634.922       3502638.300       5937409.177
10 0 59330  52740.000000  0      -1043331.761       3890244.422       5695200.866
10 0 59330  52800.000000  0      -1017333.899       4261341.838       5428934.547
10 0 59330  52860.000000  0       -983901.428       4614305.935       5139732.283
10 0 59330  52920.000000  0       -943339.477       4947589.984       4828812.998
10 0 59330  52980.000000  0       -895996.247       5259732.125       4497487.455
10 0 59330  53040.000000  0       -842260.764       5549361.879       4147152.800
10 0 59330  53100.000000  0       -782560.452       5815206.227       3779286.892
10 0 59330  53160.000000  0       -717358.563       6056095.485       3395442.371
10 0 59330  53220.000000  0       -647151.384       6270968.888       2997240.205
10 0 59330  53280.000000  0       -572465.191       6458879.613       2586362.689
10 0 59330  53340.000000  0       -493852.966       6618999.028       2164546.238
10 0 59330  53400.000000  0       -411891.007       6750620.553       1733574.093
10 0 59330  53460.000000  0       -327175.407       6853162.994       1295268.687
10 0 59330  53520.000000  0       -240318.417       6926173.237        851483.841
10 0 59330  53580.000000  0       -151944.710       6969328.390        404096.832
10 0 59330  53640.000000  0        -62687.576       6982437.369        -44999.690
10 0 59330  53700.000000  0         26814.966       6965441.828       -493905.942
10 0 59330  53760.000000  0        115924.075       6918416.361       -940723.271
10 0 59330  53820.000000  0        204003.933       6841568.054      -1383562.351
10 0 59330  53880.000000  0        290425.564       6735235.436      -1820551.303
10 0 59330  53940.000000  0        374570.604       6599886.834      -2249843.704
10 0 59330  54000.000000  0        455835.036       6436118.156      -2669626.474
10 0 59330  54060.000000  0        533632.831       6244650.084      -3078127.597
10 0 59330  54120.000000  0        607399.491       6026324.686      -3473623.662
10 0 59330  54180.000000  0        676595.451       5782101.459      -3854447.141
10 0 59330  54240.000000  0        740709.343       5513052.854      -4218993.390
10 0 59330  54300.000000  0        799261.090       5220359.295      -4565727.342
10 0 59330  54360.000000  0        851804.813       4905303.747      -4893189.844
10 0 59330  54420.000000  0        897931.557       4569265.854      -5200003.647
10 0 59330  54480.000000  0        937271.783       4213715.687      -5484879.005
10 0 59330  54540.000000  0        969497.627       3840207.151      -5746618.904
10 0 59330  54600.000000  0        994324.913       3450371.029      -5984123.914
10 0 59330  54660.000000  0       1011514.942       3045907.710      -6196396.554
10 0 59330  54720.000000  0       1020876.040       2628579.691      -6382545.211
10 0 59330  54780.000000  0       1022264.817       2200203.888      -6541787.605
10 0 59330  54840.000000  0       1015587.191       1762643.818      -6673453.872
10 0 59330  54900.000000  0       1000799.126       1317801.543      -6776989.280
10 0 59330  54960.000000  0        977907.094        867609.451      -6851956.393
10 0 59330  55020.000000  0        946968.311        414022.006      -6898036.823
10 0 59330  55080.000000  0        908090.679        -40992.649      -6915032.553
10 0 59330  55140.000000  0        861432.410       -495461.138      -6902866.723
10 0 59330  55200.000000  0        807201.405       -947413.233      -6861583.956
10 0 59330  55260.000000  0        745654.390      -1394890.230      -6791350.265
10 0 59330  55320.000000  0        677095.770      -1835953.254      -6692452.508
10 0 59330  55380.000000  0        601876.252      -2268691.485      -6565297.487
10 0 59330  55440.000000  0        520391.172      -2691230.454      -6410410.661
10 0 59330  55500.000000  0        433078.514      -3101740.260      -6228434.220
10 0 59330  55560.000000  0        340416.707      -3498443.551      -6020124.633
10 0 59330  55620.000000  0        242922.232      -3879623.269      -5786349.782
10 0 59330  55680.000000  0        141146.982      -4243630.213      -5528085.690
10 0 59330  55740.000000  0         35675.387      -4588890.382      -5246412.772
10 0 59330  55800.000000  0        -72878.690      -4913912.046      -4942511.627
10 0 59330  55860.000000  0       -183875.258      -5217292.509      -4617658.367
10 0 59330  55920.000000  0       -296651.689      -5497724.524      -4273219.493
10 0 59330  55980.000000  0       -410526.363      -5754002.314      -3910646.318
10 0 59330  56040.000000  0       -524802.470      -5985027.139      -3531468.988
10 0 59330  56100.000000  0       -638771.939      -6189812.399      -3137290.119
10 0 59330  56160.000000  0       -751719.488      -6367488.269      -2729778.095
10 0 59330  56220.000000  0       -862926.746      -6517305.847      -2310659.984
10 0 59330  56280.000000  0       -971676.443      -6638640.722      -1881714.093
10 0 59330  56340.000000  0      -1077256.617      -6730995.911      -1444762.243
10 0 59330  56400.000000  0      -1178964.837      -6794004.199      -1001661.830
10 0 59330  56460.000000  0      -1276112.407      -6827429.830       -554297.660
10 0 59330  56520.000000  0      -1368028.513      -6831169.550       -104573.658
10 0 59330  56580.000000  0      -1454064.314      -6805253.012        345595.534
10 0 59330  56640.000000  0      -1533596.946      -6749842.522        794293.033
10 0 59330  56700.000000  0      -1606033.389      -6665232.118       1239608.222
10 0 59330  56760.000000  0      -1670814.184      -6551845.988       1679645.226
10 0 59330  56820.000000  0      -1727416.972      -6410236.244       2112531.318
10 0 59330  56880.000000  0      -1775359.820      -6241080.037       2536425.194
10 0 59330  56940.000000  0      -1814204.342      -6045176.065       2949525.057
10 0 59330  57000.000000  0      -1843558.580      -5823440.502       3350076.483
10 0 59330  57060.000000  0      -1863079.591      -5576902.381       3736380.034
10 0 59330  57120.000000  0      -1872475.779      -5306698.450       4106798.544
10 0 59330  57180.000000  0      -1871508.951      -5014067.573       4459764.054
10 0 59330  57240.000000  0      -1859996.120      -4700344.741       4793784.427
10 0 59330  57300.000000  0      -1837811.011      -4366954.651       5107449.626
10 0 59330  57360.000000  0      -1804885.255      -4015404.879       5399437.630
10 0 59330  57420.000000  0      -1761209.252      -3647278.645       5668519.842
10 0 59330  57480.000000  0      -1706832.698      -3264227.367       5913565.993
10 0 59330  57540.000000  0      -1641864.799      -2867963.009       6133548.624
99
